{
  "norad_id": 63604,
  "name": "SHIYAN-27 OBJECT F",
  "history": [
    {
      "epoch": "2026-04-10T12:17:58.994304Z",
      "apogee_km": 1046.4212640891337,
      "perigee_km": 1045.0300322288676,
      "latitude_deg": -1.2944453790610787e-06,
      "longitude_deg": 85.49542793051079,
      "height_km": 1048.6426926601328,
      "semi_major_axis_km": 7423.862648159,
      "eccentricity": 9.37e-05,
      "inclination_deg": 99.6931,
      "raan_deg": 108.7365,
      "arg_perigee_deg": 100.1637,
      "mean_anomaly_deg": 259.9607,
      "mean_motion_rev_day": 13.5724381
    },
    {
      "epoch": "2026-04-11T20:08:43.115424Z",
      "apogee_km": 1046.4303644310075,
      "perigee_km": 1045.0198306324764,
      "latitude_deg": 3.113580059363772e-05,
      "longitude_deg": -32.18896992556385,
      "height_km": 1048.6360636319896,
      "semi_major_axis_km": 7423.862097531742,
      "eccentricity": 9.5e-05,
      "inclination_deg": 99.693,
      "raan_deg": 110.0438,
      "arg_perigee_deg": 99.5242,
      "mean_anomaly_deg": 260.6004,
      "mean_motion_rev_day": 13.57243961
    },
    {
      "epoch": "2026-04-13T07:31:45.458976Z",
      "apogee_km": 1046.4356796472775,
      "perigee_km": 1045.0137131779466,
      "latitude_deg": -5.1270107563238104e-05,
      "longitude_deg": 157.05061010234255,
      "height_km": 1048.6381504589272,
      "semi_major_axis_km": 7423.861696412612,
      "eccentricity": 9.577e-05,
      "inclination_deg": 99.6929,
      "raan_deg": 111.4963,
      "arg_perigee_deg": 99.6499,
      "mean_anomaly_deg": 260.4747,
      "mean_motion_rev_day": 13.57244071
    },
    {
      "epoch": "2026-04-14T20:40:56.904672Z",
      "apogee_km": 1046.442142565008,
      "perigee_km": 1045.0063677982562,
      "latitude_deg": -5.1817514874788457e-05,
      "longitude_deg": -40.247805358697654,
      "height_km": 1048.640609032947,
      "semi_major_axis_km": 7423.861255181631,
      "eccentricity": 9.67e-05,
      "inclination_deg": 99.6928,
      "raan_deg": 113.0214,
      "arg_perigee_deg": 99.7918,
      "mean_anomaly_deg": 260.3329,
      "mean_motion_rev_day": 13.57244192
    },
    {
      "epoch": "2026-04-15T19:40:55.408800Z",
      "apogee_km": 1046.4470511634372,
      "perigee_km": 1045.0008830470451,
      "latitude_deg": -1.630673437836728e-05,
      "longitude_deg": -25.242036113520403,
      "height_km": 1048.646708409755,
      "semi_major_axis_km": 7423.860967105241,
      "eccentricity": 9.74e-05,
      "inclination_deg": 99.6927,
      "raan_deg": 113.9655,
      "arg_perigee_deg": 100.2354,
      "mean_anomaly_deg": 259.8894,
      "mean_motion_rev_day": 13.57244271
    },
    {
      "epoch": "2026-04-16T20:27:03.028032Z",
      "apogee_km": 1046.4526802661958,
      "perigee_km": 1044.9946340331308,
      "latitude_deg": -4.857859530833078e-06,
      "longitude_deg": -36.77420066515606,
      "height_km": 1048.6480958624659,
      "semi_major_axis_km": 7423.860657149663,
      "eccentricity": 9.82e-05,
      "inclination_deg": 99.6926,
      "raan_deg": 114.9823,
      "arg_perigee_deg": 100.2875,
      "mean_anomaly_deg": 259.8374,
      "mean_motion_rev_day": 13.57244356
    }
  ]
}